{
"type": "FeatureCollection",
"name": "ceregnano",
"crs": { "type": "name", "properties": { "name": "urn:ogc:def:crs:OGC:1.3:CRS84" } },
"features": [
{ "type": "Feature", "properties": { "id": 1, "area": 163004.74, "perimeter": 1663.03 }, "geometry": { "type": "MultiPolygon", "coordinates": [ [ [ [ 11.850899064361542, 45.056069639152355 ], [ 11.849361960022852, 45.059642795141954 ], [ 11.851217489972729, 45.060366488524849 ], [ 11.853196109451599, 45.061458177783251 ], [ 11.855207033258576, 45.056889691067049 ], [ 11.850899064361542, 45.056069639152355 ] ] ] ] } }
]
}
